{"fetched_at":"2026-07-22T07:09:22.096Z","source":"https://celestrak.org/NORAD/elements/gp.php?GROUP=oneweb&FORMAT=JSON","constellation":"oneweb","records":[{"OBJECT_NAME":"ONEWEB-0674","OBJECT_ID":"2023-029AP","EPOCH":"2026-07-21T06:45:08.377344","CLASSIFICATION_TYPE":"U","MEAN_MOTION":13.14501808,"ECCENTRICITY":0.00016664,"INCLINATION":87.8957,"RA_OF_ASC_NODE":282.9221,"ARG_OF_PERICENTER":106.9742,"MEAN_ANOMALY":253.157,"EPHEMERIS_TYPE":0,"NORAD_CAT_ID":55833,"ELEMENT_SET_NO":999,"REV_AT_EPOCH":16389,"BSTAR":0.00054430114,"MEAN_MOTION_DOT":0.00000215,"MEAN_MOTION_DDOT":0},{"OBJECT_NAME":"ONEWEB-0675","OBJECT_ID":"2023-029AQ","EPOCH":"2026-07-21T13:15:14.769792","CLASSIFICATION_TYPE":"U","MEAN_MOTION":13.19725345,"ECCENTRICITY":0.00022024,"INCLINATION":87.9184,"RA_OF_ASC_NODE":298.1346,"ARG_OF_PERICENTER":95.1219,"MEAN_ANOMALY":265.0166,"EPHEMERIS_TYPE":0,"NORAD_CAT_ID":55834,"ELEMENT_SET_NO":999,"REV_AT_EPOCH":16345,"BSTAR":0.00010677258,"MEAN_MOTION_DOT":5.6e-7,"MEAN_MOTION_DDOT":0},{"OBJECT_NAME":"ONEWEB-0720","OBJECT_ID":"2023-029AR","EPOCH":"2026-07-21T13:03:51.546240","CLASSIFICATION_TYPE":"U","MEAN_MOTION":13.1972663,"ECCENTRICITY":0.00022411,"INCLINATION":87.9182,"RA_OF_ASC_NODE":298.1358,"ARG_OF_PERICENTER":106.5587,"MEAN_ANOMALY":253.5792,"EPHEMERIS_TYPE":0,"NORAD_CAT_ID":55835,"ELEMENT_SET_NO":999,"REV_AT_EPOCH":16337,"BSTAR":0.00027940194,"MEAN_MOTION_DOT":0.00000125,"MEAN_MOTION_DDOT":0},{"OBJECT_NAME":"ONEWEB-0537","OBJECT_ID":"2023-043A","EPOCH":"2026-07-21T02:08:31.056576","CLASSIFICATION_TYPE":"U","MEAN_MOTION":13.16593924,"ECCENTRICITY":0.00021331,"INCLINATION":87.9078,"RA_OF_ASC_NODE":222.037,"ARG_OF_PERICENTER":87.4333,"MEAN_ANOMALY":272.7042,"EPHEMERIS_TYPE":0,"NORAD_CAT_ID":56046,"ELEMENT_SET_NO":999,"REV_AT_EPOCH":16342,"BSTAR":-0.0001202796,"MEAN_MOTION_DOT":-3.3e-7,"MEAN_MOTION_DDOT":0},{"OBJECT_NAME":"ONEWEB-0538","OBJECT_ID":"2023-043B","EPOCH":"2026-07-21T01:59:23.581248","CLASSIFICATION_TYPE":"U","MEAN_MOTION":13.16594349,"ECCENTRICITY":0.00023421,"INCLINATION":87.9081,"RA_OF_ASC_NODE":222.0412,"ARG_OF_PERICENTER":91.5764,"MEAN_ANOMALY":268.5635,"EPHEMERIS_TYPE":0,"NORAD_CAT_ID":56047,"ELEMENT_SET_NO":999,"REV_AT_EPOCH":16343,"BSTAR":-0.00015727708,"MEAN_MOTION_DOT":-4.7e-7,"MEAN_MOTION_DDOT":0},{"OBJECT_NAME":"ONEWEB-0546","OBJECT_ID":"2023-043C","EPOCH":"2026-07-21T07:09:27.760608","CLASSIFICATION_TYPE":"U","MEAN_MOTION":13.1659376,"ECCENTRICITY":0.00021468,"INCLINATION":87.9084,"RA_OF_ASC_NODE":221.9987,"ARG_OF_PERICENTER":73.6123,"MEAN_ANOMALY":286.5244,"EPHEMERIS_TYPE":0,"NORAD_CAT_ID":56048,"ELEMENT_SET_NO":999,"REV_AT_EPOCH":16345,"BSTAR":-0.00020625222,"MEAN_MOTION_DOT":-6.6e-7,"MEAN_MOTION_DDOT":0},{"OBJECT_NAME":"ONEWEB-0547","OBJECT_ID":"2023-043D","EPOCH":"2026-07-21T12:55:34.250304","CLASSIFICATION_TYPE":"U","MEAN_MOTION":13.21824221,"ECCENTRICITY":0.00022166,"INCLINATION":87.9233,"RA_OF_ASC_NODE":237.1381,"ARG_OF_PERICENTER":97.5088,"MEAN_ANOMALY":262.6298,"EPHEMERIS_TYPE":0,"NORAD_CAT_ID":56049,"ELEMENT_SET_NO":999,"REV_AT_EPOCH":16276,"BSTAR":-0.000007665144,"MEAN_MOTION_DOT":1e-7,"MEAN_MOTION_DDOT":0},{"OBJECT_NAME":"ONEWEB-0548","OBJECT_ID":"2023-043E","EPOCH":"2026-07-21T02:16:28.360416","CLASSIFICATION_TYPE":"U","MEAN_MOTION":13.16595149,"ECCENTRICITY":0.00016052,"INCLINATION":87.9076,"RA_OF_ASC_NODE":222.0342,"ARG_OF_PERICENTER":95.5477,"MEAN_ANOMALY":264.5837,"EPHEMERIS_TYPE":0,"NORAD_CAT_ID":56050,"ELEMENT_SET_NO":999,"REV_AT_EPOCH":16342,"BSTAR":-0.000019860163,"MEAN_MOTION_DOT":5e-8,"MEAN_MOTION_DDOT":0},{"OBJECT_NAME":"ONEWEB-0549","OBJECT_ID":"2023-043F","EPOCH":"2026-07-21T14:36:05.972544","CLASSIFICATION_TYPE":"U","MEAN_MOTION":13.21824035,"ECCENTRICITY":0.00024654,"INCLINATION":87.9228,"RA_OF_ASC_NODE":237.1288,"ARG_OF_PERICENTER":93.9085,"MEAN_ANOMALY":266.2331,"EPHEMERIS_TYPE":0,"NORAD_CAT_ID":56051,"ELEMENT_SET_NO":999,"REV_AT_EPOCH":16277,"BSTAR":-0.000018485773,"MEAN_MOTION_DOT":5e-8,"MEAN_MOTION_DDOT":0},{"OBJECT_NAME":"ONEWEB-0550","OBJECT_ID":"2023-043G","EPOCH":"2026-07-21T12:27:43.536096","CLASSIFICATION_TYPE":"U","MEAN_MOTION":13.21827262,"ECCENTRICITY":0.00018718,"INCLINATION":87.923,"RA_OF_ASC_NODE":237.1451,"ARG_OF_PERICENTER":99.096,"MEAN_ANOMALY":261.0385,"EPHEMERIS_TYPE":0,"NORAD_CAT_ID":56052,"ELEMENT_SET_NO":999,"REV_AT_EPOCH":16276,"BSTAR":0.00012452262,"MEAN_MOTION_DOT":6.4e-7,"MEAN_MOTION_DDOT":0},{"OBJECT_NAME":"ONEWEB-0551","OBJECT_ID":"2023-043H","EPOCH":"2026-07-21T03:40:07.858272","CLASSIFICATION_TYPE":"U","MEAN_MOTION":13.15547864,"ECCENTRICITY":0.00023643,"INCLINATION":87.8982,"RA_OF_ASC_NODE":252.4582,"ARG_OF_PERICENTER":98.6686,"MEAN_ANOMALY":261.4713,"EPHEMERIS_TYPE":0,"NORAD_CAT_ID":56053,"ELEMENT_SET_NO":999,"REV_AT_EPOCH":16086,"BSTAR":0.000094210505,"MEAN_MOTION_DOT":4.8e-7,"MEAN_MOTION_DDOT":0},{"OBJECT_NAME":"ONEWEB-0552","OBJECT_ID":"2023-043J","EPOCH":"2026-07-21T03:15:25.927200","CLASSIFICATION_TYPE":"U","MEAN_MOTION":13.218264,"ECCENTRICITY":0.00021328,"INCLINATION":87.9228,"RA_OF_ASC_NODE":237.2261,"ARG_OF_PERICENTER":100.9647,"MEAN_ANOMALY":259.1727,"EPHEMERIS_TYPE":0,"NORAD_CAT_ID":56054,"ELEMENT_SET_NO":999,"REV_AT_EPOCH":16271,"BSTAR":0.000069033753,"MEAN_MOTION_DOT":4.2e-7,"MEAN_MOTION_DDOT":0},{"OBJECT_NAME":"ONEWEB-0553","OBJECT_ID":"2023-043K","EPOCH":"2026-07-21T01:50:16.383264","CLASSIFICATION_TYPE":"U","MEAN_MOTION":13.16594522,"ECCENTRICITY":0.00019487,"INCLINATION":87.9081,"RA_OF_ASC_NODE":222.0421,"ARG_OF_PERICENTER":82.0236,"MEAN_ANOMALY":278.1116,"EPHEMERIS_TYPE":0,"NORAD_CAT_ID":56055,"ELEMENT_SET_NO":999,"REV_AT_EPOCH":16343,"BSTAR":-0.0001339866,"MEAN_MOTION_DOT":-3.8e-7,"MEAN_MOTION_DDOT":0},{"OBJECT_NAME":"ONEWEB-0554","OBJECT_ID":"2023-043L","EPOCH":"2026-07-21T12:28:39.072288","CLASSIFICATION_TYPE":"U","MEAN_MOTION":13.16594349,"ECCENTRICITY":0.00015702,"INCLINATION":87.9077,"RA_OF_ASC_NODE":221.9626,"ARG_OF_PERICENTER":98.2562,"MEAN_ANOMALY":261.8747,"EPHEMERIS_TYPE":0,"NORAD_CAT_ID":56056,"ELEMENT_SET_NO":999,"REV_AT_EPOCH":16347,"BSTAR":0.00000610845,"MEAN_MOTION_DOT":1.5e-7,"MEAN_MOTION_DDOT":0},{"OBJECT_NAME":"ONEWEB-0555","OBJECT_ID":"2023-043M","EPOCH":"2026-07-21T11:33:55.445472","CLASSIFICATION_TYPE":"U","MEAN_MOTION":13.16594021,"ECCENTRICITY":0.00020001,"INCLINATION":87.9076,"RA_OF_ASC_NODE":221.9594,"ARG_OF_PERICENTER":76.0407,"MEAN_ANOMALY":284.0946,"EPHEMERIS_TYPE":0,"NORAD_CAT_ID":56057,"ELEMENT_SET_NO":999,"REV_AT_EPOCH":16347,"BSTAR":-0.00002774654,"MEAN_MOTION_DOT":2e-8,"MEAN_MOTION_DDOT":0},{"OBJECT_NAME":"ONEWEB-0557","OBJECT_ID":"2023-043N","EPOCH":"2026-07-21T11:54:26.632512","CLASSIFICATION_TYPE":"U","MEAN_MOTION":13.16594392,"ECCENTRICITY":0.0000947,"INCLINATION":87.9075,"RA_OF_ASC_NODE":221.9663,"ARG_OF_PERICENTER":63.9718,"MEAN_ANOMALY":296.151,"EPHEMERIS_TYPE":0,"NORAD_CAT_ID":56058,"ELEMENT_SET_NO":999,"REV_AT_EPOCH":16347,"BSTAR":0.00006311738,"MEAN_MOTION_DOT":3.7e-7,"MEAN_MOTION_DDOT":0}]}
